{
  "type": "FeatureCollection",
  "features": [
    {
      "type": "Feature",
      "properties": {
        "norad_id": 34907,
        "name": "COSMOS 2251 DEB",
        "group": "cosmos-2251-debris",
        "lat": 4.110493239244219,
        "lon": 43.65814453638656,
        "alt_km": 417.80955427738445,
        "timestamp": "2025-12-15T10:55:21.540176+00:00",
        "meta_object_name": "COSMOS 2251 DEB",
        "meta_object_id": "1993-036ADC",
        "meta_epoch": "2025-12-13T21:37:21.110592",
        "meta_mean_motion": 15.45090165,
        "meta_eccentricity": 0.00204412,
        "meta_inclination": 73.9706,
        "meta_ra_of_asc_node": 45.8736,
        "meta_arg_of_pericenter": 339.7109,
        "meta_mean_anomaly": 20.3287,
        "meta_ephemeris_type": 0,
        "meta_classification_type": "U",
        "meta_norad_cat_id": 34907,
        "meta_element_set_no": 999,
        "meta_rev_at_epoch": 87991,
        "meta_bstar": 0.0077288199,
        "meta_mean_motion_dot": 0.0038692,
        "meta_mean_motion_ddot": 0,
        "tle_line1": "1 34907U 93036ADC 25347.90093878  .00386920  00000+0  77288-2 0  9990",
        "tle_line2": "2 34907  73.9706  45.8736 0020441 339.7109  20.3287 15.45090165879915"
      },
      "geometry": {
        "type": "Point",
        "coordinates": [
          43.65814453638656,
          4.110493239244219
        ]
      }
    },
    {
      "type": "Feature",
      "properties": {
        "norad_id": 34908,
        "name": "COSMOS 2251 DEB",
        "group": "cosmos-2251-debris",
        "lat": 71.69134241179879,
        "lon": 78.41020988492916,
        "alt_km": 740.1864150820129,
        "timestamp": "2025-12-15T10:55:21.540187+00:00",
        "meta_object_name": "COSMOS 2251 DEB",
        "meta_object_id": "1993-036ADD",
        "meta_epoch": "2025-12-14T09:34:06.911040",
        "meta_mean_motion": 14.37404809,
        "meta_eccentricity": 0.00401093,
        "meta_inclination": 74.0594,
        "meta_ra_of_asc_node": 20.6082,
        "meta_arg_of_pericenter": 36.1567,
        "meta_mean_anomaly": 340.0067,
        "meta_ephemeris_type": 0,
        "meta_classification_type": "U",
        "meta_norad_cat_id": 34908,
        "meta_element_set_no": 999,
        "meta_rev_at_epoch": 87303,
        "meta_bstar": 0.00061029939,
        "meta_mean_motion_dot": 1.815e-05,
        "meta_mean_motion_ddot": 0,
        "tle_line1": "1 34908U 93036ADD 25348.39869110  .00001815  00000+0  61030-3 0  9991",
        "tle_line2": "2 34908  74.0594  20.6082 0040109  36.1567 340.0067 14.37404809873036"
      },
      "geometry": {
        "type": "Point",
        "coordinates": [
          78.41020988492916,
          71.69134241179879
        ]
      }
    },
    {
      "type": "Feature",
      "properties": {
        "norad_id": 34909,
        "name": "COSMOS 2251 DEB",
        "group": "cosmos-2251-debris",
        "lat": -64.55782003491218,
        "lon": -71.71280720995024,
        "alt_km": 599.7844877071338,
        "timestamp": "2025-12-15T10:55:21.540196+00:00",
        "meta_object_name": "COSMOS 2251 DEB",
        "meta_object_id": "1993-036ADE",
        "meta_epoch": "2025-12-14T15:55:30.641376",
        "meta_mean_motion": 14.77856453,
        "meta_eccentricity": 0.00843726,
        "meta_inclination": 74.0146,
        "meta_ra_of_asc_node": 72.7889,
        "meta_arg_of_pericenter": 208.1452,
        "meta_mean_anomaly": 151.5151,
        "meta_ephemeris_type": 0,
        "meta_classification_type": "U",
        "meta_norad_cat_id": 34909,
        "meta_element_set_no": 999,
        "meta_rev_at_epoch": 66880,
        "meta_bstar": 0.00052421635,
        "meta_mean_motion_dot": 3.965e-05,
        "meta_mean_motion_ddot": 0,
        "tle_line1": "1 34909U 93036ADE 25348.66354909  .00003965  00000+0  52422-3 0  9990",
        "tle_line2": "2 34909  74.0146  72.7889 0084372 208.1452 151.5151 14.77856453668803"
      },
      "geometry": {
        "type": "Point",
        "coordinates": [
          -71.71280720995024,
          -64.55782003491218
        ]
      }
    },
    {
      "type": "Feature",
      "properties": {
        "norad_id": 34910,
        "name": "COSMOS 2251 DEB",
        "group": "cosmos-2251-debris",
        "lat": -69.78076816203392,
        "lon": 45.385313984359165,
        "alt_km": 972.8544081401478,
        "timestamp": "2025-12-15T10:55:21.540207+00:00",
        "meta_object_name": "COSMOS 2251 DEB",
        "meta_object_id": "1993-036ADF",
        "meta_epoch": "2025-12-14T02:07:32.801376",
        "meta_mean_motion": 13.37686817,
        "meta_eccentricity": 0.0468001,
        "meta_inclination": 73.8761,
        "meta_ra_of_asc_node": 99.2955,
        "meta_arg_of_pericenter": 217.9911,
        "meta_mean_anomaly": 321.1168,
        "meta_ephemeris_type": 0,
        "meta_classification_type": "U",
        "meta_norad_cat_id": 34910,
        "meta_element_set_no": 999,
        "meta_rev_at_epoch": 81542,
        "meta_bstar": 0.0016260876,
        "meta_mean_motion_dot": 1.586e-05,
        "meta_mean_motion_ddot": 0,
        "tle_line1": "1 34910U 93036ADF 25348.08857409  .00001586  00000+0  16261-2 0  9998",
        "tle_line2": "2 34910  73.8761  99.2955 0468001 217.9911 321.1168 13.37686817815421"
      },
      "geometry": {
        "type": "Point",
        "coordinates": [
          45.385313984359165,
          -69.78076816203392
        ]
      }
    },
    {
      "type": "Feature",
      "properties": {
        "norad_id": 34911,
        "name": "COSMOS 2251 DEB",
        "group": "cosmos-2251-debris",
        "lat": 14.36338832053189,
        "lon": 55.36738888524909,
        "alt_km": 751.5952267440971,
        "timestamp": "2025-12-15T10:55:21.540218+00:00",
        "meta_object_name": "COSMOS 2251 DEB",
        "meta_object_id": "1993-036ADG",
        "meta_epoch": "2025-12-14T17:58:47.734176",
        "meta_mean_motion": 14.59375822,
        "meta_eccentricity": 0.00837067,
        "meta_inclination": 74.0408,
        "meta_ra_of_asc_node": 240.9147,
        "meta_arg_of_pericenter": 5.8148,
        "meta_mean_anomaly": 51.4559,
        "meta_ephemeris_type": 0,
        "meta_classification_type": "U",
        "meta_norad_cat_id": 34911,
        "meta_element_set_no": 999,
        "meta_rev_at_epoch": 88616,
        "meta_bstar": 0.0001862909,
        "meta_mean_motion_dot": 8.94e-06,
        "meta_mean_motion_ddot": 0,
        "tle_line1": "1 34911U 93036ADG 25348.74916359  .00000894  00000+0  18629-3 0  9994",
        "tle_line2": "2 34911  74.0408 240.9147 0083706   5.8148  51.4559 14.59375822886164"
      },
      "geometry": {
        "type": "Point",
        "coordinates": [
          55.36738888524909,
          14.36338832053189
        ]
      }
    },
    {
      "type": "Feature",
      "properties": {
        "norad_id": 34913,
        "name": "COSMOS 2251 DEB",
        "group": "cosmos-2251-debris",
        "lat": -67.69176643260343,
        "lon": -126.74525119948821,
        "alt_km": 785.9217549156356,
        "timestamp": "2025-12-15T10:55:21.540228+00:00",
        "meta_object_name": "COSMOS 2251 DEB",
        "meta_object_id": "1993-036ADJ",
        "meta_epoch": "2025-12-13T12:56:38.472288",
        "meta_mean_motion": 14.34637945,
        "meta_eccentricity": 0.00203757,
        "meta_inclination": 74.0284,
        "meta_ra_of_asc_node": 281.0321,
        "meta_arg_of_pericenter": 30.7723,
        "meta_mean_anomaly": 84.8293,
        "meta_ephemeris_type": 0,
        "meta_classification_type": "U",
        "meta_norad_cat_id": 34913,
        "meta_element_set_no": 999,
        "meta_rev_at_epoch": 65199,
        "meta_bstar": 8.4132523e-05,
        "meta_mean_motion_dot": 2.12e-06,
        "meta_mean_motion_ddot": 0,
        "tle_line1": "1 34913U 93036ADJ 25347.53933417  .00000212  00000+0  84133-4 0  9994",
        "tle_line2": "2 34913  74.0284 281.0321 0020375  30.7723  84.8293 14.34637945651993"
      },
      "geometry": {
        "type": "Point",
        "coordinates": [
          -126.74525119948821,
          -67.69176643260343
        ]
      }
    },
    {
      "type": "Feature",
      "properties": {
        "norad_id": 34918,
        "name": "COSMOS 2251 DEB",
        "group": "cosmos-2251-debris",
        "lat": -26.43048901936586,
        "lon": -59.71085085041352,
        "alt_km": 681.421048037033,
        "timestamp": "2025-12-15T10:55:21.540238+00:00",
        "meta_object_name": "COSMOS 2251 DEB",
        "meta_object_id": "1993-036ADP",
        "meta_epoch": "2025-12-10T06:27:09.237024",
        "meta_mean_motion": 14.6111897,
        "meta_eccentricity": 0.0033898,
        "meta_inclination": 74.0712,
        "meta_ra_of_asc_node": 318.3402,
        "meta_arg_of_pericenter": 286.4186,
        "meta_mean_anomaly": 135.6409,
        "meta_ephemeris_type": 0,
        "meta_classification_type": "U",
        "meta_norad_cat_id": 34918,
        "meta_element_set_no": 999,
        "meta_rev_at_epoch": 65300,
        "meta_bstar": 0.0032517,
        "meta_mean_motion_dot": 0.00016131,
        "meta_mean_motion_ddot": 0,
        "tle_line1": "1 34918U 93036ADP 25344.26885691  .00016131  00000+0  32517-2 0  9990",
        "tle_line2": "2 34918  74.0712 318.3402 0033898 286.4186 135.6409 14.61118970653005"
      },
      "geometry": {
        "type": "Point",
        "coordinates": [
          -59.71085085041352,
          -26.43048901936586
        ]
      }
    }
  ]
}